{
  "type": "FeatureCollection",
  "features": [
    {
      "type": "Feature",
      "properties": {
        "norad_id": 33412,
        "name": "COSMO-SKYMED 3",
        "group": "resource",
        "lat": -48.416553520736045,
        "lon": -151.8448763729709,
        "alt_km": 566.2759384355004,
        "timestamp": "2025-12-14T18:52:55.154874+00:00",
        "meta_object_name": "COSMO-SKYMED 3",
        "meta_object_id": "2008-054A",
        "meta_epoch": "2025-12-13T23:57:24.621696",
        "meta_mean_motion": 15.05380991,
        "meta_eccentricity": 0.00161243,
        "meta_inclination": 97.8477,
        "meta_ra_of_asc_node": 198.4111,
        "meta_arg_of_pericenter": 169.0623,
        "meta_mean_anomaly": 191.0957,
        "meta_ephemeris_type": 0,
        "meta_classification_type": "U",
        "meta_norad_cat_id": 33412,
        "meta_element_set_no": 999,
        "meta_rev_at_epoch": 92906,
        "meta_bstar": 0.00068788489,
        "meta_mean_motion_dot": 9.831e-05,
        "meta_mean_motion_ddot": 0,
        "tle_line1": "1 33412U 08054A   25347.99820164  .00009831  00000+0  68788-3 0  9990",
        "tle_line2": "2 33412  97.8477 198.4111 0016124 169.0623 191.0957 15.05380991929062"
      },
      "geometry": {
        "type": "Point",
        "coordinates": [
          -151.8448763729709,
          -48.416553520736045
        ]
      }
    },
    {
      "type": "Feature",
      "properties": {
        "norad_id": 33446,
        "name": "YAOGAN-4",
        "group": "resource",
        "lat": 53.84114803965361,
        "lon": 109.84449297502245,
        "alt_km": 625.0553095261484,
        "timestamp": "2025-12-14T18:52:55.154885+00:00",
        "meta_object_name": "YAOGAN-4",
        "meta_object_id": "2008-061A",
        "meta_epoch": "2025-12-13T19:38:34.739232",
        "meta_mean_motion": 14.82687573,
        "meta_eccentricity": 0.00135062,
        "meta_inclination": 97.9179,
        "meta_ra_of_asc_node": 277.9072,
        "meta_arg_of_pericenter": 319.5483,
        "meta_mean_anomaly": 40.4725,
        "meta_ephemeris_type": 0,
        "meta_classification_type": "U",
        "meta_norad_cat_id": 33446,
        "meta_element_set_no": 999,
        "meta_rev_at_epoch": 91819,
        "meta_bstar": 0.00027850382,
        "meta_mean_motion_dot": 2.196e-05,
        "meta_mean_motion_ddot": 0,
        "tle_line1": "1 33446U 08061A   25347.81845763  .00002196  00000+0  27850-3 0  9990",
        "tle_line2": "2 33446  97.9179 277.9072 0013506 319.5483  40.4725 14.82687573918197"
      },
      "geometry": {
        "type": "Point",
        "coordinates": [
          109.84449297502245,
          53.84114803965361
        ]
      }
    },
    {
      "type": "Feature",
      "properties": {
        "norad_id": 33492,
        "name": "GOSAT (IBUKI)",
        "group": "resource",
        "lat": 64.74760306430338,
        "lon": 79.83990508603335,
        "alt_km": 661.942669926143,
        "timestamp": "2025-12-14T18:52:55.154895+00:00",
        "meta_object_name": "GOSAT (IBUKI)",
        "meta_object_id": "2009-002A",
        "meta_epoch": "2025-12-13T21:18:35.439552",
        "meta_mean_motion": 14.67557806,
        "meta_eccentricity": 9.462e-05,
        "meta_inclination": 98.077,
        "meta_ra_of_asc_node": 96.4752,
        "meta_arg_of_pericenter": 93.6106,
        "meta_mean_anomaly": 266.5207,
        "meta_ephemeris_type": 0,
        "meta_classification_type": "U",
        "meta_norad_cat_id": 33492,
        "meta_element_set_no": 999,
        "meta_rev_at_epoch": 90428,
        "meta_bstar": 0.00022832293,
        "meta_mean_motion_dot": 1.247e-05,
        "meta_mean_motion_ddot": 0,
        "tle_line1": "1 33492U 09002A   25347.88791018  .00001247  00000+0  22832-3 0  9998",
        "tle_line2": "2 33492  98.0770  96.4752 0000946  93.6106 266.5207 14.67557806904281"
      },
      "geometry": {
        "type": "Point",
        "coordinates": [
          79.83990508603335,
          64.74760306430338
        ]
      }
    },
    {
      "type": "Feature",
      "properties": {
        "norad_id": 35681,
        "name": "DEIMOS-1",
        "group": "resource",
        "lat": -18.164601499795523,
        "lon": -33.25490867430436,
        "alt_km": 651.3784883132921,
        "timestamp": "2025-12-14T18:52:55.154907+00:00",
        "meta_object_name": "DEIMOS-1",
        "meta_object_id": "2009-041A",
        "meta_epoch": "2025-12-14T00:04:35.673024",
        "meta_mean_motion": 14.74955721,
        "meta_eccentricity": 0.00027169,
        "meta_inclination": 97.7149,
        "meta_ra_of_asc_node": 148.5475,
        "meta_arg_of_pericenter": 77.5805,
        "meta_mean_anomaly": 282.5708,
        "meta_ephemeris_type": 0,
        "meta_classification_type": "U",
        "meta_norad_cat_id": 35681,
        "meta_element_set_no": 999,
        "meta_rev_at_epoch": 87958,
        "meta_bstar": 0.00016648628,
        "meta_mean_motion_dot": 1.071e-05,
        "meta_mean_motion_ddot": 0,
        "tle_line1": "1 35681U 09041A   25348.00319066  .00001071  00000+0  16649-3 0  9991",
        "tle_line2": "2 35681  97.7149 148.5475 0002716  77.5805 282.5708 14.74955721879588"
      },
      "geometry": {
        "type": "Point",
        "coordinates": [
          -33.25490867430436,
          -18.164601499795523
        ]
      }
    },
    {
      "type": "Feature",
      "properties": {
        "norad_id": 35682,
        "name": "DUBAISAT-1",
        "group": "resource",
        "lat": 48.73648149388945,
        "lon": -51.36595737795496,
        "alt_km": 648.6616952565528,
        "timestamp": "2025-12-14T18:52:55.154918+00:00",
        "meta_object_name": "DUBAISAT-1",
        "meta_object_id": "2009-041B",
        "meta_epoch": "2025-12-13T22:44:57.041952",
        "meta_mean_motion": 14.74609148,
        "meta_eccentricity": 0.00094902,
        "meta_inclination": 97.9785,
        "meta_ra_of_asc_node": 118.6096,
        "meta_arg_of_pericenter": 310.3721,
        "meta_mean_anomaly": 49.6659,
        "meta_ephemeris_type": 0,
        "meta_classification_type": "U",
        "meta_norad_cat_id": 35682,
        "meta_element_set_no": 999,
        "meta_rev_at_epoch": 87779,
        "meta_bstar": 0.00028028268,
        "meta_mean_motion_dot": 1.819e-05,
        "meta_mean_motion_ddot": 0,
        "tle_line1": "1 35682U 09041B   25347.94788243  .00001819  00000+0  28028-3 0  9995",
        "tle_line2": "2 35682  97.9785 118.6096 0009490 310.3721  49.6659 14.74609148877792"
      },
      "geometry": {
        "type": "Point",
        "coordinates": [
          -51.36595737795496,
          48.73648149388945
        ]
      }
    },
    {
      "type": "Feature",
      "properties": {
        "norad_id": 35931,
        "name": "OCEANSAT-2",
        "group": "resource",
        "lat": 62.29649684155162,
        "lon": -174.8368109059949,
        "alt_km": 886.3322485152166,
        "timestamp": "2025-12-14T18:52:55.154929+00:00",
        "meta_object_name": "OCEANSAT-2",
        "meta_object_id": "2009-051A",
        "meta_epoch": "2025-12-13T23:27:21.577248",
        "meta_mean_motion": 13.99624415,
        "meta_eccentricity": 0.00161855,
        "meta_inclination": 98.2222,
        "meta_ra_of_asc_node": 348.4525,
        "meta_arg_of_pericenter": 41.814,
        "meta_mean_anomaly": 318.426,
        "meta_ephemeris_type": 0,
        "meta_classification_type": "U",
        "meta_norad_cat_id": 35931,
        "meta_element_set_no": 999,
        "meta_rev_at_epoch": 85342,
        "meta_bstar": -6.3861296e-05,
        "meta_mean_motion_dot": -1.31e-06,
        "meta_mean_motion_ddot": 0,
        "tle_line1": "1 35931U 09051A   25347.97733307 -.00000131  00000+0 -63861-4 0  9990",
        "tle_line2": "2 35931  98.2222 348.4525 0016185  41.8140 318.4260 13.99624415853428"
      },
      "geometry": {
        "type": "Point",
        "coordinates": [
          -174.8368109059949,
          62.29649684155162
        ]
      }
    },
    {
      "type": "Feature",
      "properties": {
        "norad_id": 35946,
        "name": "WORLDVIEW-2 (WV-2)",
        "group": "resource",
        "lat": 21.568124891374946,
        "lon": -116.77689034364164,
        "alt_km": 765.9900156994045,
        "timestamp": "2025-12-14T18:52:55.154939+00:00",
        "meta_object_name": "WORLDVIEW-2 (WV-2)",
        "meta_object_id": "2009-055A",
        "meta_epoch": "2025-12-13T22:06:23.196384",
        "meta_mean_motion": 14.37724452,
        "meta_eccentricity": 0.00051497,
        "meta_inclination": 98.4788,
        "meta_ra_of_asc_node": 58.989,
        "meta_arg_of_pericenter": 67.7566,
        "meta_mean_anomaly": 292.4167,
        "meta_ephemeris_type": 0,
        "meta_classification_type": "U",
        "meta_norad_cat_id": 35946,
        "meta_element_set_no": 999,
        "meta_rev_at_epoch": 84902,
        "meta_bstar": 7.1764937e-05,
        "meta_mean_motion_dot": 1.72e-06,
        "meta_mean_motion_ddot": 0,
        "tle_line1": "1 35946U 09055A   25347.92110181  .00000172  00000+0  71765-4 0  9999",
        "tle_line2": "2 35946  98.4788  58.9890 0005149  67.7566 292.4167 14.37724452849021"
      },
      "geometry": {
        "type": "Point",
        "coordinates": [
          -116.77689034364164,
          21.568124891374946
        ]
      }
    }
  ]
}